{"type": "FeatureCollection", "features": [ {"type": "Feature", "properties": {"norad_id": 30481, "name": "FENGYUN 1C DEB", "group": "fengyun-1c-debris", "lat": -38.18976286968945, "lon": -176.2851442855568, "alt_km": 619.6603283624017, "timestamp": "2025-12-19T04:59:48.582805+00:00", "meta": {"OBJECT_NAME": "FENGYUN 1C DEB", "OBJECT_ID": "1999-025AGT", "EPOCH": "2025-12-18T23:18:12.688416", "MEAN_MOTION": 14.39062972, "ECCENTRICITY": 0.02231039, "INCLINATION": 98.3362, "RA_OF_ASC_NODE": 10.1073, "ARG_OF_PERICENTER": 241.1549, "MEAN_ANOMALY": 190.1156, "EPHEMERIS_TYPE": 0, "CLASSIFICATION_TYPE": "U", "NORAD_CAT_ID": 30481, "ELEMENT_SET_NO": 999, "REV_AT_EPOCH": 98573, "BSTAR": 0.00038530552, "MEAN_MOTION_DOT": 1.54e-05, "MEAN_MOTION_DDOT": 0}, "tle": {"line1": "1 30481U 99025AGT 25352.97098019  .00001540  00000+0  38531-3 0  9993", "line2": "2 30481  98.3362  10.1073 0223103 241.1549 190.1156 14.39062972985736"}}, "geometry": {"type": "Point", "coordinates": [-176.2851442855568, -38.18976286968945]}}, {"type": "Feature", "properties": {"norad_id": 30489, "name": "FENGYUN 1C DEB", "group": "fengyun-1c-debris", "lat": -71.50986826546472, "lon": 161.3288619577077, "alt_km": 747.1805919283097, "timestamp": "2025-12-19T04:59:48.582815+00:00", "meta": {"OBJECT_NAME": "FENGYUN 1C DEB", "OBJECT_ID": "1999-025AHB", "EPOCH": "2025-12-18T21:35:21.056928", "MEAN_MOTION": 14.15827923, "ECCENTRICITY": 0.01390253, "INCLINATION": 98.468, "RA_OF_ASC_NODE": 7.4903, "ARG_OF_PERICENTER": 247.1509, "MEAN_ANOMALY": 233.8159, "EPHEMERIS_TYPE": 0, "CLASSIFICATION_TYPE": "U", "NORAD_CAT_ID": 30489, "ELEMENT_SET_NO": 999, "REV_AT_EPOCH": 97474, "BSTAR": 0.0002219677, "MEAN_MOTION_DOT": 4.37e-06, "MEAN_MOTION_DDOT": 0}, "tle": {"line1": "1 30489U 99025AHB 25352.89954927  .00000437  00000+0  22197-3 0  9996", "line2": "2 30489  98.4680   7.4903 0139025 247.1509 233.8159 14.15827923974746"}}, "geometry": {"type": "Point", "coordinates": [161.3288619577077, -71.50986826546472]}}, {"type": "Feature", "properties": {"norad_id": 30490, "name": "FENGYUN 1C DEB", "group": "fengyun-1c-debris", "lat": 11.757419892952857, "lon": -52.61846337080406, "alt_km": 469.3305902906741, "timestamp": "2025-12-19T04:59:48.582825+00:00", "meta": {"OBJECT_NAME": "FENGYUN 1C DEB", "OBJECT_ID": "1999-025AHC", "EPOCH": "2025-12-18T14:08:23.593344", "MEAN_MOTION": 15.29641288, "ECCENTRICITY": 0.00456978, "INCLINATION": 98.3298, "RA_OF_ASC_NODE": 124.9408, "ARG_OF_PERICENTER": 95.911, "MEAN_ANOMALY": 264.7339, "EPHEMERIS_TYPE": 0, "CLASSIFICATION_TYPE": "U", "NORAD_CAT_ID": 30490, "ELEMENT_SET_NO": 999, "REV_AT_EPOCH": 99585, "BSTAR": 0.0030505324, "MEAN_MOTION_DOT": 0.00091306, "MEAN_MOTION_DDOT": 0}, "tle": {"line1": "1 30490U 99025AHC 25352.58916196  .00091306  00000+0  30505-2 0  9996", "line2": "2 30490  98.3298 124.9408 0045697  95.9110 264.7339 15.29641288995857"}}, "geometry": {"type": "Point", "coordinates": [-52.61846337080406, 11.757419892952857]}}, {"type": "Feature", "properties": {"norad_id": 30492, "name": "FENGYUN 1C DEB", "group": "fengyun-1c-debris", "lat": 48.677087911629826, "lon": -152.16039816397856, "alt_km": 706.941338438337, "timestamp": "2025-12-19T04:59:48.582836+00:00", "meta": {"OBJECT_NAME": "FENGYUN 1C DEB", "OBJECT_ID": "1999-025AHE", "EPOCH": "2025-12-18T16:50:02.640480", "MEAN_MOTION": 14.51996911, "ECCENTRICITY": 0.00943389, "INCLINATION": 102.3249, "RA_OF_ASC_NODE": 12.7004, "ARG_OF_PERICENTER": 47.0212, "MEAN_ANOMALY": 313.8829, "EPHEMERIS_TYPE": 0, "CLASSIFICATION_TYPE": "U", "NORAD_CAT_ID": 30492, "ELEMENT_SET_NO": 999, "REV_AT_EPOCH": 96981, "BSTAR": 0.0023756665, "MEAN_MOTION_DOT": 0.000101, "MEAN_MOTION_DDOT": 0}, "tle": {"line1": "1 30492U 99025AHE 25352.70141945  .00010100  00000+0  23757-2 0  9998", "line2": "2 30492 102.3249  12.7004 0094338  47.0212 313.8829 14.51996911969811"}}, "geometry": {"type": "Point", "coordinates": [-152.16039816397856, 48.677087911629826]}}, {"type": "Feature", "properties": {"norad_id": 30493, "name": "FENGYUN 1C DEB", "group": "fengyun-1c-debris", "lat": 23.980006557594447, "lon": 6.9097413312469005, "alt_km": 819.9996388597601, "timestamp": "2025-12-19T04:59:48.582846+00:00", "meta": {"OBJECT_NAME": "FENGYUN 1C DEB", "OBJECT_ID": "1999-025AHF", "EPOCH": "2025-12-18T11:08:53.995776", "MEAN_MOTION": 13.9300992, "ECCENTRICITY": 0.01811093, "INCLINATION": 98.5686, "RA_OF_ASC_NODE": 182.3754, "ARG_OF_PERICENTER": 200.8998, "MEAN_ANOMALY": 188.7168, "EPHEMERIS_TYPE": 0, "CLASSIFICATION_TYPE": "U", "NORAD_CAT_ID": 30493, "ELEMENT_SET_NO": 999, "REV_AT_EPOCH": 95175, "BSTAR": 0.0026464168, "MEAN_MOTION_DOT": 3.897e-05, "MEAN_MOTION_DDOT": 0}, "tle": {"line1": "1 30493U 99025AHF 25352.46451384  .00003897  00000+0  26464-2 0  9996", "line2": "2 30493  98.5686 182.3754 0181109 200.8998 188.7168 13.93009920951751"}}, "geometry": {"type": "Point", "coordinates": [6.9097413312469005, 23.980006557594447]}}, {"type": "Feature", "properties": {"norad_id": 30494, "name": "FENGYUN 1C DEB", "group": "fengyun-1c-debris", "lat": 61.68482262543504, "lon": -133.86642506473592, "alt_km": 953.4239594929159, "timestamp": "2025-12-19T04:59:48.582856+00:00", "meta": {"OBJECT_NAME": "FENGYUN 1C DEB", "OBJECT_ID": "1999-025AHG", "EPOCH": "2025-12-16T01:33:38.382048", "MEAN_MOTION": 13.79381802, "ECCENTRICITY": 0.01860202, "INCLINATION": 99.2829, "RA_OF_ASC_NODE": 25.381, "ARG_OF_PERICENTER": 213.4488, "MEAN_ANOMALY": 145.4803, "EPHEMERIS_TYPE": 0, "CLASSIFICATION_TYPE": "U", "NORAD_CAT_ID": 30494, "ELEMENT_SET_NO": 999, "REV_AT_EPOCH": 94532, "BSTAR": 0.0011833464, "MEAN_MOTION_DOT": 1.34e-05, "MEAN_MOTION_DDOT": 0}, "tle": {"line1": "1 30494U 99025AHG 25350.06502757  .00001340  00000+0  11833-2 0  9997", "line2": "2 30494  99.2829  25.3810 0186020 213.4488 145.4803 13.79381802945327"}}, "geometry": {"type": "Point", "coordinates": [-133.86642506473592, 61.68482262543504]}}, {"type": "Feature", "properties": {"norad_id": 30495, "name": "FENGYUN 1C DEB", "group": "fengyun-1c-debris", "lat": -53.45097335617212, "lon": 99.82069878694676, "alt_km": 988.7415794778362, "timestamp": "2025-12-19T04:59:48.582866+00:00", "meta": {"OBJECT_NAME": "FENGYUN 1C DEB", "OBJECT_ID": "1999-025AHH", "EPOCH": "2025-12-18T01:27:00.141120", "MEAN_MOTION": 12.94405912, "ECCENTRICITY": 0.05973647, "INCLINATION": 102.2603, "RA_OF_ASC_NODE": 81.4784, "ARG_OF_PERICENTER": 255.7913, "MEAN_ANOMALY": 97.6147, "EPHEMERIS_TYPE": 0, "CLASSIFICATION_TYPE": "U", "NORAD_CAT_ID": 30495, "ELEMENT_SET_NO": 999, "REV_AT_EPOCH": 88742, "BSTAR": 0.0025868713, "MEAN_MOTION_DOT": 1.565e-05, "MEAN_MOTION_DDOT": 0}, "tle": {"line1": "1 30495U 99025AHH 25352.06041830  .00001565  00000+0  25869-2 0  9993", "line2": "2 30495 102.2603  81.4784 0597364 255.7913  97.6147 12.94405912887425"}}, "geometry": {"type": "Point", "coordinates": [99.82069878694676, -53.45097335617212]}}, {"type": "Feature", "properties": {"norad_id": 30496, "name": "FENGYUN 1C DEB", "group": "fengyun-1c-debris", "lat": 37.2734603180774, "lon": 86.5718688577333, "alt_km": 543.1567474374024, "timestamp": "2025-12-19T04:59:48.582876+00:00", "meta": {"OBJECT_NAME": "FENGYUN 1C DEB", "OBJECT_ID": "1999-025AHJ", "EPOCH": "2025-12-18T17:07:34.946688", "MEAN_MOTION": 14.9434222, "ECCENTRICITY": 0.01303761, "INCLINATION": 98.7851, "RA_OF_ASC_NODE": 259.2596, "ARG_OF_PERICENTER": 78.1763, "MEAN_ANOMALY": 283.4043, "EPHEMERIS_TYPE": 0, "CLASSIFICATION_TYPE": "U", "NORAD_CAT_ID": 30496, "ELEMENT_SET_NO": 999, "REV_AT_EPOCH": 1233, "BSTAR": 0.0004298266, "MEAN_MOTION_DOT": 5.393e-05, "MEAN_MOTION_DDOT": 0}, "tle": {"line1": "1 30496U 99025AHJ 25352.71359892  .00005393  00000+0  42983-3 0  9996", "line2": "2 30496  98.7851 259.2596 0130376  78.1763 283.4043 14.94342220 12336"}}, "geometry": {"type": "Point", "coordinates": [86.5718688577333, 37.2734603180774]}}, {"type": "Feature", "properties": {"norad_id": 30498, "name": "FENGYUN 1C DEB", "group": "fengyun-1c-debris", "lat": 8.600031966976204, "lon": 43.05283402831894, "alt_km": 921.9243825115109, "timestamp": "2025-12-19T04:59:48.582887+00:00", "meta": {"OBJECT_NAME": "FENGYUN 1C DEB", "OBJECT_ID": "1999-025AHL", "EPOCH": "2025-12-18T15:54:24.600672", "MEAN_MOTION": 14.06100703, "ECCENTRICITY": 0.01041254, "INCLINATION": 99.238, "RA_OF_ASC_NODE": 43.907, "ARG_OF_PERICENTER": 139.7742, "MEAN_ANOMALY": 350.6099, "EPHEMERIS_TYPE": 0, "CLASSIFICATION_TYPE": "U", "NORAD_CAT_ID": 30498, "ELEMENT_SET_NO": 999, "REV_AT_EPOCH": 95852, "BSTAR": 0.0014444412, "MEAN_MOTION_DOT": 2.446e-05, "MEAN_MOTION_DDOT": 0}, "tle": {"line1": "1 30498U 99025AHL 25352.66278473  .00002446  00000+0  14444-2 0  9993", "line2": "2 30498  99.2380  43.9070 0104125 139.7742 350.6099 14.06100703958529"}}, "geometry": {"type": "Point", "coordinates": [43.05283402831894, 8.600031966976204]}}, {"type": "Feature", "properties": {"norad_id": 30500, "name": "FENGYUN 1C DEB", "group": "fengyun-1c-debris", "lat": -45.51916318590782, "lon": 94.2839532934837, "alt_km": 851.4448514614569, "timestamp": "2025-12-19T04:59:48.582897+00:00", "meta": {"OBJECT_NAME": "FENGYUN 1C DEB", "OBJECT_ID": "1999-025AHN", "EPOCH": "2025-12-18T22:45:27.466848", "MEAN_MOTION": 14.25262177, "ECCENTRICITY": 0.00640276, "INCLINATION": 99.0728, "RA_OF_ASC_NODE": 84.6509, "ARG_OF_PERICENTER": 98.6181, "MEAN_ANOMALY": 322.5093, "EPHEMERIS_TYPE": 0, "CLASSIFICATION_TYPE": "U", "NORAD_CAT_ID": 30500, "ELEMENT_SET_NO": 999, "REV_AT_EPOCH": 96770, "BSTAR": 0.0017621469, "MEAN_MOTION_DOT": 4.191e-05, "MEAN_MOTION_DDOT": 0}, "tle": {"line1": "1 30500U 99025AHN 25352.94823457  .00004191  00000+0  17621-2 0  9995", "line2": "2 30500  99.0728  84.6509 0064027  98.6181 322.5093 14.25262177967709"}}, "geometry": {"type": "Point", "coordinates": [94.2839532934837, -45.51916318590782]}}]}